ONEWEB-0271             
1 48989U 21060Y   24280.63159976  .00000151  00000+0  36215-3 0  9995
2 48989  87.9163 351.9697 0002125 107.2727 252.8637 13.16596292158270
ONEWEB-0272             
1 48990U 21060Z   24280.65375709  .00000123  00000+0  28887-3 0  9998
2 48990  87.9162 351.9953 0001983 106.2899 253.8451 13.16597120158227
ONEWEB-0273             
1 48991U 21060AA  24280.67592961  .00000047  00000+0  88502-4 0  9998
2 48991  87.9162 351.9771 0002005  98.2186 261.9172 13.16595443158205
ONEWEB-0274             
1 48992U 21060AB  24280.62527104 -.00000013  00000+0 -68689-4 0  9990
2 48992  87.9170 352.0080 0001765 116.6239 243.5073 13.16595036158233
ONEWEB-0275             
1 48993U 21060AC  24280.61418341  .00000067  00000+0  14286-3 0  9992
2 48993  87.9160 351.9841 0001953 102.8015 257.3334 13.16595547158166
ONEWEB-0276             
1 48994U 21060AD  24280.64742099  .00000156  00000+0  37375-3 0  9999
2 48994  87.9163 351.9742 0002107  99.8815 260.2554 13.16597400158184
ONEWEB-0277             
1 48995U 21060AE  24280.66009061  .00000140  00000+0  33242-3 0  9999
2 48995  87.9162 352.0099 0002273 105.7005 254.4377 13.16597096158171
ONEWEB-0278             
1 48996U 21060AF  24280.65058180  .00000172  00000+0  41748-3 0  9990
2 48996  87.9162 351.9705 0001835  91.3075 268.8266 13.16598206158309
ONEWEB-0279             
1 48997U 21060AG  24280.65850990  .00000136  00000+0  32152-3 0  9999
2 48997  87.9162 351.9663 0002162 108.1147 252.0219 13.16597461158231
ONEWEB-0280             
1 48998U 21060AH  24280.67269747  .00000109  00000+0  25074-3 0  9991
2 48998  87.9162 351.9661 0002011  96.0807 264.0553 13.16597318158179
ONEWEB-0281             
1 48999U 21060AJ  24280.67909281  .00000012  00000+0 -96520-6 0  9997
2 48999  87.9160 351.9657 0001677 105.0552 255.0765 13.16596732158240
ONEWEB-0282             
1 49000U 21060AK  24280.63317738  .00000106  00000+0  24345-3 0  9993
2 49000  87.9161 351.9910 0001940  95.0885 265.0467 13.16596012158215
ONEWEB-0283             
1 49001U 21060AL  24280.62208709  .00000020  00000+0  18306-4 0  9996
2 49001  87.9160 351.9982 0002029 106.2602 253.8753 13.16598322158225
ONEWEB-0284             
1 49002U 21060AM  24280.61575541 -.00000040  00000+0 -13717-3 0  9991
2 49002  87.9154 351.9770 0001894  95.2567 264.8780 13.16593872158205
ONEWEB-0285             
1 49075U 21075A   24280.77688504 -.00000033  00000+0 -12719-3 0  9991
2 49075  87.8849 113.8288 0001666  81.9682 278.1636 13.12442013154098
ONEWEB-0286             
1 49076U 21075B   24280.82459025  .00000018  00000+0  14863-4 0  9996
2 49076  87.8846 113.8184 0001398  77.1226 283.0059 13.12442856153452
ONEWEB-0287             
1 49077U 21075C   24280.81840983 -.00002470  00000+0 -63957-2 0  9995
2 49077  87.9094 129.0463 0001656  73.6722 286.4591 13.17662807152190
ONEWEB-0288             
1 49078U 21075D   24280.81081901 -.00000093  00000+0 -29449-3 0  9991
2 49078  87.8847 113.8245 0001665  78.4831 281.6484 13.12445582154070
ONEWEB-0289             
1 49079U 21075E   24280.84712528  .00000133  00000+0  31026-3 0  9998
2 49079  87.9101 129.0691 0001722  81.9917 278.1410 13.17649506152779
ONEWEB-0290             
1 49080U 21075F   24280.83024040  .00000077  00000+0  16456-3 0  9991
2 49080  87.9100 129.0322 0002360  81.9787 278.1612 13.17647750152183
ONEWEB-0291             
1 49081U 21075G   24280.81505923  .00000081  00000+0  17659-3 0  9995
2 49081  87.9093 129.0510 0001712  71.3311 288.8006 13.17649765152172
ONEWEB-0293             
1 49082U 21075H   24280.84036294  .00000155  00000+0  36578-3 0  9992
2 49082  87.9099 129.0654 0001800  74.3880 285.7450 13.17651233152206
ONEWEB-0294             
1 49083U 21075J   24280.81730391 -.00000115  00000+0 -35628-3 0  9992
2 49083  87.8841 113.8234 0002248  69.4222 290.7147 13.12445301153468
ONEWEB-0295             
1 49084U 21075K   24280.83951448  .00000941  00000+0  23899-2 0  9994
2 49084  87.9103 129.0439 0001888  67.1887 292.9444 13.17649499152167
ONEWEB-0296             
1 49085U 21075L   24280.79782163 -.00000341  00000+0 -98400-3 0  9993
2 49085  87.8847 113.8292 0001748  59.5634 300.5667 13.12441659153460
ONEWEB-0297             
1 49086U 21075M   24280.82866478  .00000449  00000+0  12135-2 0  9997
2 49086  87.8856 113.8384 0001527  82.9083 277.2219 13.12444506154071
ONEWEB-0298             
1 49087U 21075N   24280.84375630  .00000157  00000+0  37192-3 0  9992
2 49087  87.9101 129.0609 0001459  79.1335 280.9961 13.17651690152192
ONEWEB-0299             
1 49088U 21075P   24280.84543628  .00000062  00000+0  12566-3 0  9990
2 49088  87.9096 129.0251 0001370  76.5743 283.5541 13.17648590152171
ONEWEB-0300             
1 49089U 21075Q   24280.82053390 -.00000154  00000+0 -46314-3 0  9993
2 49089  87.8846 113.8195 0001499  97.4732 262.6566 13.12443538154092
ONEWEB-0301             
1 49090U 21075R   24280.57560244 -.00000288  00000+0 -83619-3 0  9995
2 49090  87.8846 113.8723 0001568  95.0309 265.0998 13.12441282153428
ONEWEB-0302             
1 49091U 21075S   24280.79133145 -.00000210  00000+0 -61926-3 0  9998
2 49091  87.8848 113.8287 0001704  76.9175 283.2143 13.12440401153434
ONEWEB-0304             
1 49092U 21075T   24280.82012277  .00000065  00000+0  13325-3 0  9991
2 49092  87.9100 129.0505 0001524  72.9710 287.1588 13.17649923152148
ONEWEB-0305             
1 49093U 21075U   24280.81337578  .00000141  00000+0  32883-3 0  9990
2 49093  87.9096 129.0361 0001313  68.2217 291.9054 13.17651747152170
ONEWEB-0308             
1 49094U 21075V   24280.78485597  .00000016  00000+0  81284-5 0  9994
2 49094  87.8844 113.8279 0001589  86.0235 274.1076 13.12444028153448
ONEWEB-0309             
1 49095U 21075W   24280.81674440  .00000069  00000+0  14390-3 0  9996
2 49095  87.9101 129.0431 0002036  70.6355 289.4997 13.17648505152143
ONEWEB-0310             
1 49096U 21075X   24280.79945750 -.00000299  00000+0 -86598-3 0  9995
2 49096  87.8856 113.8428 0001743  81.9875 278.1451 13.12443766154074
ONEWEB-0311             
1 49097U 21075Y   24280.82349095  .00000117  00000+0  26710-3 0  9997
2 49097  87.9101 129.0430 0001289  70.0747 290.0523 13.17649949152193
ONEWEB-0312             
1 49098U 21075Z   24280.83867322  .00000051  00000+0  97581-4 0  9999
2 49098  87.9111 129.0721 0001821  66.4288 293.7034 13.17647146152171
ONEWEB-0313             
1 49099U 21075AA  24280.81589683  .00000046  00000+0  85021-4 0  9999
2 49099  87.9100 129.0792 0001581  71.2162 288.9141 13.17649053152169
ONEWEB-0314             
1 49100U 21075AB  24280.80999743  .00000097  00000+0  21664-3 0  9991
2 49100  87.9097 129.0340 0001590  65.4304 294.6993 13.17650100152130
ONEWEB-0315             
1 49101U 21075AC  24280.77351529  .00000366  00000+0  98093-3 0  9991
2 49101  87.8845 113.8230 0001158  84.2542 275.8719 13.12443555154052
ONEWEB-0316             
1 49102U 21075AD  24280.76602521  .00000143  00000+0  33110-3 0  9994
2 49102  87.9056  98.5502 0001470  84.9086 275.2214 13.18684711155700
ONEWEB-0317             
1 49103U 21075AE  24280.84326181  .00001056  00000+0  28989-2 0  9990
2 49103  87.8845 113.8200 0001709  79.1873 280.9448 13.12444914154082
ONEWEB-0318             
1 49104U 21075AF  24280.76286239  .00000103  00000+0  22827-3 0  9999
2 49104  87.9054  98.5413 0001351  84.3645 275.7641 13.18685304155667
ONEWEB-0319             
1 49105U 21075AG  24280.59737252  .00000062  00000+0  12703-3 0  9993
2 49105  87.9101 129.1133 0001229  65.7198 294.4061 13.17648831152148
ONEWEB-0323             
1 49106U 21075AH  24280.83353404  .00000538  00000+0  14606-2 0  9995
2 49106  87.8847 113.8087 0001462  77.5094 282.6198 13.12443635153442
ONEWEB-0329             
1 49107U 21075AJ  24280.60581793  .00000045  00000+0  82886-4 0  9995
2 49107  87.9101 129.1156 0001534  73.0607 287.0693 13.17647934152121
ONEWEB-0330             
1 49108U 21075AK  24280.83530578  .00000036  00000+0  58743-4 0  9991
2 49108  87.9101 129.0714 0001731  71.4315 288.7004 13.17647792152191
ONEWEB-0292             
1 49186U 21083A   24280.75459560  .00000393  00000+0  10423-2 0  9995
2 49186  87.8866  83.2966 0001396  92.1092 268.0197 13.13470973149745
ONEWEB-0303             
1 49187U 21083B   24280.75970606 -.00000037  00000+0 -12725-3 0  9990
2 49187  87.9056  98.5429 0001416  86.6407 273.4887 13.18683921148471
ONEWEB-0306             
1 49188U 21083C   24280.75022587  .00000166  00000+0  38890-3 0  9999
2 49188  87.9052  98.5308 0001817  86.6929 273.4411 13.18686193148510
ONEWEB-0307             
1 49189U 21083D   24280.74902983  .00000402  00000+0  10667-2 0  9990
2 49189  87.8865  83.2988 0001893  85.7012 274.4334 13.13472733149743
ONEWEB-0320             
1 49190U 21083E   24280.75654224  .00000206  00000+0  49039-3 0  9993
2 49190  87.9055  98.5555 0001664  87.0209 273.1114 13.18685115148471
ONEWEB-0321             
1 49191U 21083F   24280.72249137  .00000129  00000+0  28621-3 0  9992
2 49191  87.9274  37.4566 0001919 101.7826 258.3523 13.20771064155199
ONEWEB-0322             
1 49192U 21083G   24280.74506176  .00000418  00000+0  11107-2 0  9995
2 49192  87.8867  83.2887 0002052  92.4303 267.7061 13.13470321149735
ONEWEB-0324             
1 49193U 21083H   24280.74232486  .00000170  00000+0  39904-3 0  9997
2 49193  87.9053  98.5395 0001627  77.4128 282.7186 13.18687614148499
ONEWEB-0325             
1 49194U 21083J   24280.74706076  .00000243  00000+0  58402-3 0  9994
2 49194  87.9054  98.5535 0001698  89.2704 270.8623 13.18685671148503
ONEWEB-0326             
1 49195U 21083K   24280.76129949  .00000180  00000+0  42377-3 0  9999
2 49195  87.9054  98.5470 0001151  79.1507 280.9755 13.18686567148496
ONEWEB-0327             
1 49196U 21083L   24280.76050701  .00000066  00000+0  13431-3 0  9991
2 49196  87.9054  98.5725 0001210  89.1528 270.9743 13.18693963148517
